STARLINK-30191          
1 57413U 23102K   23275.05051467 -.00000783  00000+0 -42899-4 0  9990
2 57413  43.0019  42.7372 0001004 294.3598  65.7140 15.02537620 12411
STARLINK-30193          
1 57414U 23102L   23275.05349601  .00003104  00000+0  24996-3 0  9996
2 57414  43.0022  42.7596 0002227 266.2845  93.7742 15.01728208 12417
STARLINK-30208          
1 57415U 23102M   23275.04717694 -.00007643  00000+0 -55105-3 0  9997
2 57415  43.0029  42.7116 0002663 270.1338  89.9199 15.02549803 12201
STARLINK-30224          
1 57416U 23102N   23275.04385520 -.00004969  00000+0 -35310-3 0  9991
2 57416  43.0040  42.6870 0001144 322.2827  37.7935 15.02530977 12410
STARLINK-30043          
1 57417U 23102P   23275.36958796  .00013056  00000+0  97996-3 0  9991
2 57417  43.0034  40.8316 0001656 278.8361  81.2294 15.02529171 12467
STARLINK-30221          
1 57418U 23102Q   23275.37291255  .00019902  00000+0  14837-2 0  9991
2 57418  43.0032  40.8569 0000510 311.3899  48.6900 15.02547596 12465
STARLINK-30189          
1 57430U 23105A   23274.80767131 -.00000344  00000+0 -10370-4 0  9998
2 57430  43.0018  57.5020 0001697 282.0632  78.0020 15.02538663 11651
STARLINK-30170          
1 57431U 23105B   23275.40265026 -.00000623  00000+0 -31077-4 0  9999
2 57431  43.0011  54.2238 0001080 282.4156  77.6565 15.02532566 11791
STARLINK-30188          
1 57432U 23105C   23275.39931492 -.00000094  00000+0  81178-5 0  9994
2 57432  42.9981  54.1998 0001197 294.0582  66.0135 15.02536208 11757
STARLINK-30105          
1 57433U 23105D   23274.83139058  .00059854  00000+0  24898-2 0  9991
2 57433  42.9993  50.8797 0005702 350.4481   9.6260 15.22943292 11830
STARLINK-30102          
1 57434U 23105E   23274.79435044  .00003030  00000+0  23922-3 0  9994
2 57434  43.0003  57.4017 0001506 289.2982  70.7697 15.02547619 11649
STARLINK-30180          
1 57435U 23105F   23274.86415257  .00027423  00000+0  20349-2 0  9998
2 57435  43.0014  57.0654 0001496 274.1655  85.9016 15.02578182 11803
STARLINK-30183          
1 57436U 23105G   23275.45581107  .00001505  00000+0  12646-3 0  9998
2 57436  42.9995  53.7598 0001287 261.0559  99.0138 15.02532853 11802
STARLINK-30237          
1 57437U 23105H   23275.44916025 -.00001419  00000+0 -90008-4 0  9994
2 57437  43.0015  53.7143 0001433 286.6274  73.4410 15.02520982 12039
STARLINK-30158          
1 57438U 23105J   23275.12007783 -.00000586  00000+0 -28253-4 0  9999
2 57438  43.0022  55.5380 0002109 277.4933  82.5669 15.02548903 11750
STARLINK-30173          
1 57439U 23105K   23275.44205801 -.00004230  00000+0 -21484-3 0  9994
2 57439  43.0034  46.8527 0001268 276.3390  83.7312 15.14301500 11885
STARLINK-30159          
1 57440U 23105L   23275.11342382  .00000510  00000+0  52808-4 0  9996
2 57440  42.9998  55.4918 0001749 284.4027  75.6621 15.02535749 11609
STARLINK-30160          
1 57441U 23105M   23275.37601083 -.00005620  00000+0 -40144-3 0  9999
2 57441  43.0000  54.0227 0001355 293.0980  66.9719 15.02521496 11628
STARLINK-30146          
1 57442U 23105N   23275.43917908 -.00010062  00000+0 -73169-3 0  9992
2 57442  43.0009  53.6354 0001561 268.0318  92.0345 15.02490915 11862
STARLINK-30197          
1 57443U 23105P   23275.43582894 -.00004834  00000+0 -34313-3 0  9993
2 57443  43.0016  53.6102 0001637 282.7438  77.3221 15.02521756 11869
STARLINK-30181          
1 57444U 23105Q   23275.09010458 -.00002506  00000+0 -17045-3 0  9995
2 57444  43.0017  55.3165 0002957 262.4464  97.6042 15.02542575 11812
STARLINK-30215          
1 57445U 23105R   23275.09053453  .00000434  00000+0  46297-4 0  9996
2 57445  43.0013  55.3219 0001487 269.3468  90.7204 15.03348243 11558
STARLINK-30162          
1 57446U 23105S   23275.41159354 -.00001844  00000+0 -86728-4 0  9991
2 57446  43.0026  45.7671 0001258 276.6892  83.3811 15.14291458 11892
STARLINK-30178          
1 57447U 23105T   23275.22640389  .00000465  00000+0  49529-4 0  9998
2 57447  42.9999  54.6213 0001965 303.8321  56.2334 15.02532068 11774
STARLINK-30196          
1 57448U 23105U   23275.08345751  .00000068  00000+0  20140-4 0  9995
2 57448  43.0000  55.2657 0001400 298.5292  61.5410 15.02537422 11582
STARLINK-30225          
1 57449U 23105V   23275.08012835 -.00004800  00000+0 -34057-3 0  9991
2 57449  43.0013  55.2396 0001352 276.3705  83.6983 15.02526829 11844
STARLINK-30217          
1 57450U 23105W   23275.07797104  .00004219  00000+0  23841-3 0  9992
2 57450  43.0031  50.9967 0000882 284.1313  75.9436 15.14308756 11804
STARLINK-30216          
1 57451U 23105X   23275.40919552 -.00001983  00000+0 -13180-3 0  9995
2 57451  43.0043  53.4331 0001058 282.7273  77.3451 15.02526827 11650
STARLINK-30165          
1 57457U 23107A   23275.30460042  .00001335  00000+0  11386-3 0  9992
2 57457  42.9985 131.9051 0001089 265.1416  94.9302 15.02534854 10982
STARLINK-30140          
1 57458U 23107B   23275.30126417  .00000631  00000+0  61739-4 0  9994
2 57458  42.9999 131.8796 0001442 270.9745  89.0932 15.02547654 11319
STARLINK-30185          
1 57459U 23107C   23275.29793350  .00003531  00000+0  27626-3 0  9997
2 57459  43.0000 131.8539 0001204 266.9596  93.1108 15.02546657 11307
STARLINK-30077          
1 57460U 23107D   23275.29460043  .00012728  00000+0  95495-3 0  9996
2 57460  42.9999 131.8291 0001627 265.7685  94.2971 15.02559148 11314
STARLINK-30229          
1 57461U 23107E   23275.42964162  .00001200  00000+0  10607-3 0  9998
2 57461  43.0004 131.1209 0001020 267.9076  92.1649 15.01718250 11321
STARLINK-30088          
1 57462U 23107F   23274.95888525  .00013744  00000+0  10298-2 0  9995
2 57462  42.9994 133.6077 0001446 271.9678  88.0999 15.02560503 11254
STARLINK-30091          
1 57463U 23107G   23275.08517666  .00013265  00000+0  99454-3 0  9996
2 57463  42.9981 132.8362 0001407 271.3100  88.7581 15.02561315 11289
STARLINK-30115          
1 57464U 23107H   23274.88241607  .00010417  00000+0  78467-3 0  9990
2 57464  42.9990 133.8939 0001539 262.2835  97.7833 15.02555002 11265
STARLINK-30116          
1 57465U 23107J   23275.28795085  .00007984  00000+0  60534-3 0  9991
2 57465  43.0002 131.7779 0000616 262.9005  97.1767 15.02540927 11206
STARLINK-30156          
1 57466U 23107K   23275.58334491  .00523351  11323-3  15421-2 0  9994
2 57466  42.9971 100.6716 0025105 286.9435 191.3167 15.91254217 11684
STARLINK-30092          
1 57467U 23107L   23274.87908580  .00019616  00000+0  14622-2 0  9994
2 57467  42.9991 133.8713 0001396 263.0713  96.9971 15.02560280 11262
STARLINK-30039          
1 57468U 23107M   23274.94223375  .00004430  00000+0  34274-3 0  9999
2 57468  43.0001 133.4841 0001707 270.6690  89.3957 15.02546792 11159
STARLINK-30171          
1 57469U 23107N   23275.33463734  .00007007  00000+0  52179-3 0  9996
2 57469  42.9985 131.2690 0001251 281.6582  78.4121 15.03359901 11329
STARLINK-30186          
1 57470U 23107P   23274.67299767  .00000398  00000+0  44497-4 0  9998
2 57470  42.9985 134.9025 0001200 266.7108  93.3597 15.02531417 11231
STARLINK-30190          
1 57471U 23107Q   23275.32445192  .00012486  00000+0  93733-3 0  9994
2 57471  43.0004 131.1899 0001496 269.0918  90.9752 15.02552628 11318
STARLINK-30204          
1 57472U 23107R   23275.33111149  .00001843  00000+0  15142-3 0  9991
2 57472  43.0011 131.2406 0001824 265.4989  94.5645 15.02546724 10999
STARLINK-30187          
1 57473U 23107S   23274.86198758  .00001745  00000+0  14722-3 0  9994
2 57473  42.9995 133.7338 0001386 268.2330  91.8353 15.01732869 11267
STARLINK-30110          
1 57474U 23107T   23275.32112364  .00001558  00000+0  13033-3 0  9992
2 57474  42.9997 131.1664 0000824 276.3200  83.7548 15.02541470 11225
STARLINK-30155          
1 57475U 23107U   23275.31779260  .00005134  00000+0  39474-3 0  9997
2 57475  42.9995 131.1403 0001795 266.4387  93.6250 15.02546463 11226
STARLINK-30161          
1 57476U 23107V   23275.31446743  .00001226  00000+0  10578-3 0  9997
2 57476  42.9998 131.1170 0001369 267.2812  92.7873 15.02538384 11325
STARLINK-30176          
1 57477U 23107W   23274.97985314  .00015663  00000+0  11711-2 0  9990
2 57477  42.9990 132.9059 0001434 275.8107  84.2572 15.02563408 11066
STARLINK-30154          
1 57495U 23113A   23275.40013895  .00017140  00000+0  12801-2 0  9995
2 57495  43.0000 169.8467 0001375 272.5651  87.5034 15.02557028  9724
STARLINK-30145          
1 57496U 23113B   23275.58334491  .00059078  00000+0  43537-2 0  9999
2 57496  43.0000 168.6458 0001917 267.8723  94.4351 15.02518308  9807
STARLINK-30226          
1 57497U 23113C   23274.98546759  .00013100  00000+0  93293-3 0  9996
2 57497  42.9993 171.9158 0001397 259.7277 100.3409 15.04506720  9726
STARLINK-30203          
1 57498U 23113D   23275.43677833 -.00010633  00000+0 -73495-3 0  9998
2 57498  43.0055 169.2742 0002697 328.8931  31.1752 15.04423846  9893
STARLINK-30169          
1 57499U 23113E   23275.38564909  .00025104  00000+0  12936-2 0  9991
2 57499  42.9996 166.3479 0001711 260.0401 100.0253 15.15926179  9763
STARLINK-30164          
1 57500U 23113F   23275.25001157  .00055589  00000+0  41006-2 0  9991
2 57500  42.9993 170.1567 0002011 271.8169 211.6077 15.02508136  9868
STARLINK-30072          
1 57501U 23113G   23274.75522730  .00011058  00000+0  83217-3 0  9995
2 57501  42.9993 172.7534 0001233 257.5190 102.5514 15.02543103  9688
STARLINK-30228          
1 57502U 23113H   23274.98795340  .00020934  00000+0  15591-2 0  9992
2 57502  42.9990 171.9149 0001462 258.3714 101.6964 15.02560026  9710
STARLINK-30230          
1 57503U 23113J   23275.42998927  .00009238  00000+0  69757-3 0  9997
2 57503  42.9995 169.2166 0001517 268.1749  91.8920 15.02559689  9785
STARLINK-30213          
1 57504U 23113K   23275.08439893  .00011773  00000+0  88475-3 0  9997
2 57504  42.9984 171.7728 0001428 253.7927 106.2758 15.02552580  9834
